IDEFIX & ARIANE 42P R/B 
1 27422U 02021B   26055.42078116  .00000283  00000+0  12419-3 0  9991
2 27422  98.5858 354.1869 0010885 223.1821 136.8509 14.31015559242126
AQUA                    
1 27424U 02022A   26056.16542719  .00000951  00000+0  19981-3 0  9994
2 27424  98.4151  23.3046 0000892  48.9783  42.2171 14.61941186266906
CZ-4B R/B               
1 27432U 02024C   26056.12039052  .00000027  00000+0  36761-4 0  9992
2 27432  98.8870 109.5888 0050999  59.4948 320.7455 14.14545069227466
MIDORI II (ADEOS-II)    
1 27597U 02056A   26056.13279717  .00000236  00000+0  11055-3 0  9994
2 27597  98.7746  14.5257 0001977  60.4867 299.6511 14.29273949208500
H-2A R/B                
1 27601U 02056E   26056.13870694  .00000253  00000+0  10326-3 0  9990
2 27601  98.3178  16.9839 0069715 198.1032 187.2472 14.33750998212311
CZ-4B R/B               
1 28059U 03049C   26055.93649509  .00000369  00000+0  96499-4 0  9991
2 28059  98.6867  50.3424 0046993 270.7342  88.8470 14.55005157184746
CZ-2C R/B               
1 28222U 04012C   26056.13029828  .00044691  00000+0  49182-3 0  9995
2 28222  97.7262 120.2468 0013946   0.1360 359.9899 15.62913951202319
SL-16 R/B               
1 28353U 04021B   26056.01161879  .00000102  00000+0  77926-4 0  9997
2 28353  70.9989 259.1002 0003396  38.5046 321.6318 14.14599157121049
CZ-4B R/B               
1 28415U 04035C   26056.08160270  .00007260  00000+0  25799-3 0  9994
2 28415  97.3529  90.4769 0032592  16.7322 343.4985 15.28803002177981
CZ-2C R/B               
1 28480U 04046B   26055.51354382  .00000112  00000+0  56961-4 0  9999
2 28480  98.1989 331.3167 0139081 193.3740 166.3741 14.26987138106623
ARIANE 5 R/B            
1 28499U 04049H   26055.69784956  .00000809  00000+0  95476-4 0  9992
2 28499  98.2606 223.6706 0084853  33.9362 326.7240 14.85237929143861
CZ-2D R/B               
1 28738U 05024B   26056.00458606  .00036426  00000+0  46964-3 0  9999
2 28738  97.3617  70.6981 0007466  76.9454 283.2635 15.58898111137807
